CCSDS_OEM_VERS = 1.0
CREATION_DATE  = 2017-05-11T11:43:23
ORIGINATOR     = GMAT USER

META_START
OBJECT_NAME          = MOPSSat_alt_35785_km_RAAN_180_139
OBJECT_ID            = SatId
CENTER_NAME          = Earth
REF_FRAME            = EME2000
TIME_SYSTEM          = UTC
START_TIME           = 2017-01-01T00:00:00.000
USEABLE_START_TIME   = 2017-01-01T00:00:00.000
USEABLE_STOP_TIME    = 2017-01-02T00:00:00.000
STOP_TIME            = 2017-01-02T00:00:00.000
INTERPOLATION        = Lagrange
INTERPOLATION_DEGREE = 7 
META_STOP


                                                                                   

2017-01-01T20:28:20.000   5.292098654550011e+03   3.715466765929526e+04  -3.268937853351389e+02  -3.321313371406190e+00  -8.692433542359455e-01   7.794351324413370e-03
2017-01-01T20:28:30.000   5.258883528556938e+03   3.714596121414726e+04  -3.268157184041123e+02  -3.321711413134104e+00  -8.720460446750857e-01   7.819038110759187e-03
2017-01-01T20:28:40.000   5.225664432252234e+03   3.713722673040289e+04  -3.267374045028349e+02  -3.322107369424267e+00  -8.748510567895974e-01   7.843745224597019e-03
2017-01-01T20:28:50.000   5.192441386869587e+03   3.712846418493470e+04  -3.266588434288346e+02  -3.322501235286362e+00  -8.776583916110803e-01   7.868472674732604e-03
2017-01-01T20:29:00.000   5.159214413599080e+03   3.711967355457955e+04  -3.265800349793237e+02  -3.322893005720470e+00  -8.804680501744472e-01   7.893220470000352e-03
2017-01-01T20:29:10.000   5.125983533756914e+03   3.711085481618398e+04  -3.265009789516057e+02  -3.323282675715098e+00  -8.832800335035049e-01   7.917988619136351e-03
2017-01-01T20:29:20.000   5.092748768035632e+03   3.710200794640552e+04  -3.264216751412946e+02  -3.323670240255956e+00  -8.860943426743676e-01   7.942777131336886e-03
2017-01-01T20:29:30.000   5.059510137254062e+03   3.709313292191124e+04  -3.263421233440938e+02  -3.324055694317138e+00  -8.889109787520091e-01   7.967586015699617e-03
2017-01-01T20:29:40.000   5.026267662187979e+03   3.708422971933353e+04  -3.262623233554003e+02  -3.324439032863116e+00  -8.917299428045249e-01   7.992415281349214e-03
2017-01-01T20:29:50.000   4.993021364000196e+03   3.707529831538141e+04  -3.261822749713031e+02  -3.324820250843476e+00  -8.945512358669192e-01   8.017264937118357e-03
2017-01-01T20:30:00.000   4.959771263921593e+03   3.706633868675910e+04  -3.261019779878523e+02  -3.325199343196886e+00  -8.973748589678490e-01   8.042134991783318e-03
2017-01-01T20:30:10.000   4.926517383251005e+03   3.705735081016437e+04  -3.260214322010452e+02  -3.325576304850965e+00  -9.002008131297189e-01   8.067025454064807e-03
2017-01-01T20:30:20.000   4.893259743675583e+03   3.704833466237895e+04  -3.259406374076342e+02  -3.325951130718917e+00  -9.030290993411735e-01   8.091936332385644e-03
2017-01-01T20:30:30.000   4.859998366839744e+03   3.703929022014837e+04  -3.258595934040537e+02  -3.326323815704133e+00  -9.058597185939599e-01   8.116867635195474e-03
2017-01-01T20:30:40.000   4.826733274518294e+03   3.703021746022990e+04  -3.257782999868467e+02  -3.326694354698282e+00  -9.086926718681223e-01   8.141819370840353e-03
2017-01-01T20:30:50.000   4.793464487853296e+03   3.702111635918444e+04  -3.256967569508004e+02  -3.327062742589812e+00  -9.115279601969701e-01   8.166791548134987e-03
2017-01-01T20:31:00.000   4.760192028119324e+03   3.701198689358492e+04  -3.256149640908152e+02  -3.327428974255371e+00  -9.143655846019061e-01   8.191784175788704e-03
2017-01-01T20:31:10.000   4.726915916526086e+03   3.700282903996284e+04  -3.255329212014241e+02  -3.327793044562028e+00  -9.172055461091886e-01   8.216797262553087e-03
2017-01-01T20:31:20.000   4.693636174749463e+03   3.699364277495133e+04  -3.254506280780759e+02  -3.328154948361190e+00  -9.200478457048159e-01   8.241830816824582e-03
2017-01-01T20:31:30.000   4.660352824493550e+03   3.698442807516779e+04  -3.253680845160817e+02  -3.328514680493635e+00  -9.228924843716576e-01   8.266884846971564e-03
2017-01-01T20:31:40.000   4.627065887591762e+03   3.697518491724078e+04  -3.252852903108584e+02  -3.328872235788318e+00  -9.257394630808620e-01   8.291959361258655e-03
2017-01-01T20:31:50.000   4.593775385968014e+03   3.696591327780138e+04  -3.252022452578488e+02  -3.329227609062936e+00  -9.285887827950055e-01   8.317054367874499e-03
2017-01-01T20:32:00.000   4.560481341617987e+03   3.695661313347644e+04  -3.251189491524619e+02  -3.329580795123981e+00  -9.314404444697919e-01   8.342169874946683e-03
2017-01-01T20:32:10.000   4.527183776569407e+03   3.694728446087738e+04  -3.250354017899740e+02  -3.329931788767156e+00  -9.342944490574266e-01   8.367305890571473e-03
2017-01-01T20:32:20.000   4.493882712863713e+03   3.693792723659695e+04  -3.249516029654964e+02  -3.330280584777684e+00  -9.371507975080492e-01   8.392462422826392e-03
2017-01-01T20:32:30.000   4.460578172516723e+03   3.692854143719599e+04  -3.248675524738609e+02  -3.330627177930537e+00  -9.400094907732258e-01   8.417639479801037e-03
2017-01-01T20:32:40.000   4.427270177620015e+03   3.691912703923292e+04  -3.247832501098814e+02  -3.330971562989439e+00  -9.428705297971688e-01   8.442837069519694e-03
2017-01-01T20:32:50.000   4.393958749901823e+03   3.690968401913706e+04  -3.246986956672192e+02  -3.331313734711161e+00  -9.457339155546297e-01   8.468055200275120e-03
2017-01-01T20:33:00.000   4.360643911259322e+03   3.690021235336156e+04  -3.246138889397546e+02  -3.331653687840238e+00  -9.485996490049592e-01   8.493293880223888e-03
2017-01-01T20:33:10.000   4.327325683557632e+03   3.689071201832603e+04  -3.245288297210718e+02  -3.331991417110951e+00  -9.514677311093978e-01   8.518553117538732e-03
2017-01-01T20:33:20.000   4.294004089408919e+03   3.688118299063849e+04  -3.244435178064456e+02  -3.332326917239408e+00  -9.543381627640080e-01   8.543832919817786e-03
2017-01-01T20:33:30.000   4.260679151393546e+03   3.687162524687376e+04  -3.243579529908577e+02  -3.332660182931461e+00  -9.572109448666574e-01   8.569133294674576e-03
2017-01-01T20:33:40.000   4.227350892261216e+03   3.686203876363036e+04  -3.242721350695075e+02  -3.332991208880613e+00  -9.600860782997126e-01   8.594454249585584e-03
2017-01-01T20:33:50.000   4.194019334399290e+03   3.685242351738086e+04  -3.241860638364693e+02  -3.333319989773553e+00  -9.629635639756500e-01   8.619795792291943e-03
2017-01-01T20:34:00.000   4.160684500271685e+03   3.684277948459501e+04  -3.240997390857975e+02  -3.333646520285509e+00  -9.658434027993955e-01   8.645157930467802e-03
2017-01-01T20:34:10.000   4.127346412317824e+03   3.683310664171141e+04  -3.240131606112716e+02  -3.333970795081317e+00  -9.687255956769641e-01   8.670540671796342e-03
2017-01-01T20:34:20.000   4.094005092991757e+03   3.682340496514703e+04  -3.239263282064821e+02  -3.334292808814857e+00  -9.716101435121980e-01   8.695944023941081e-03
2017-01-01T20:34:30.000   4.060660564781133e+03   3.681367443130422e+04  -3.238392416648923e+02  -3.334612556128982e+00  -9.744970472049895e-01   8.721367994530219e-03
2017-01-01T20:34:40.000   4.027312850247205e+03   3.680391501658239e+04  -3.237519007799439e+02  -3.334930031655112e+00  -9.773863076477928e-01   8.746812591125933e-03
2017-01-01T20:34:50.000   3.993961972043421e+03   3.679412669738186e+04  -3.236643053450912e+02  -3.335245230012918e+00  -9.802779257241105e-01   8.772277821211018e-03
2017-01-01T20:35:00.000   3.960607952955029e+03   3.678430945011753e+04  -3.235764551539231e+02  -3.335558145810082e+00  -9.831719023048884e-01   8.797763692157177e-03
2017-01-01T20:35:10.000   3.927250815797769e+03   3.677446325118818e+04  -3.234883499998883e+02  -3.335868773643180e+00  -9.860682382573440e-01   8.823270211302725e-03
2017-01-01T20:35:20.000   3.893890583857819e+03   3.676458807710915e+04  -3.233999896774828e+02  -3.336177108093786e+00  -9.889669344065328e-01   8.848797385614169e-03
2017-01-01T20:35:30.000   3.860527280358991e+03   3.675468390435242e+04  -3.233113739808188e+02  -3.336483143733194e+00  -9.918679915817942e-01   8.874345222095207e-03
2017-01-01T20:35:40.000   3.827160928660979e+03   3.674475070940582e+04  -3.232225027041538e+02  -3.336786875120625e+00  -9.947714105994561e-01   8.899913727634420e-03
2017-01-01T20:35:50.000   3.793791551492004e+03   3.673478846854488e+04  -3.231333756398510e+02  -3.337088296810211e+00  -9.976771923295606e-01   8.925502909592870e-03
2017-01-01T20:36:00.000   3.760419171714436e+03   3.672479715806030e+04  -3.230439925804128e+02  -3.337387403343972e+00  -1.000585337629262e+00   8.951112775217578e-03
2017-01-01T20:36:10.000   3.727043812151502e+03   3.671477675420698e+04  -3.229543533180259e+02  -3.337684189253428e+00  -1.003495847357829e+00   8.976743331773659e-03
2017-01-01T20:36:20.000   3.693665496019244e+03   3.670472723332986e+04  -3.228644576456868e+02  -3.337978649055418e+00  -1.006408722339244e+00   9.002394586214966e-03
2017-01-01T20:36:30.000   3.660284246606144e+03   3.669464857177172e+04  -3.227743053563771e+02  -3.338270777255270e+00  -1.009323963389817e+00   9.028066545427231e-03
2017-01-01T20:36:40.000   3.626900087273067e+03   3.668454074587170e+04  -3.226838962430496e+02  -3.338560568346651e+00  -1.012241571318281e+00   9.053759216228944e-03
2017-01-01T20:36:50.000   3.593513041774770e+03   3.667440373206636e+04  -3.225932300995323e+02  -3.338848016809083e+00  -1.015161546897388e+00   9.079472605121194e-03
2017-01-01T20:37:00.000   3.560123133827276e+03   3.666423750675516e+04  -3.225023067193264e+02  -3.339133117111375e+00  -1.018083890901962e+00   9.105206718622744e-03
2017-01-01T20:37:10.000   3.526730387278420e+03   3.665404204635309e+04  -3.224111258960746e+02  -3.339415863710213e+00  -1.021008604093894e+00   9.130961563137958e-03
2017-01-01T20:37:20.000   3.493334825354413e+03   3.664381732706079e+04  -3.223196874215084e+02  -3.339696251056542e+00  -1.023935687288097e+00   9.156737145537578e-03
